C/2019 L2 (NEOWISE),e,152.1972,12.5570,18.8638,25.10626,0.0078349,0.93525092,14.2312,03/23.0/2024,2000,g 16.0,4.0
# From MPEC 2024-EF7
P/2019 LD2 (ATLAS),e,11.6060,179.4409,118.2831,5.199448,0.0831320,0.12720642,124.2395,03/23.0/2024,2000,g  8.5,4.0
# From MPEC 2024-F34
C/2019 L3 (ATLAS),h,01/09.8241/2022,48.3447,290.7508,171.6602,1.002519,3.555104,2000,4.5,4.0
# From MPEC 2020-K19
P/2019 LM4 (Palomar),e,36.4171,72.8407,68.2691,5.704570,0.0723385,0.58534394,125.8470,03/23.0/2024,2000,g  9.5,4.0
# From MPC118095
C/2019 LB7 (Kleyna),e,164.2887,3.9181,336.6650,34.84390,0.0047920,0.92839341,8.7381,03/23.0/2024,2000,g 17.0,4.0
# From MPEC 2024-DC6
P/2019 M2 (ATLAS),e,12.2665,307.6116,332.5268,3.029886,0.1868808,0.64728980,324.6468,03/23.0/2024,2000,g 21.2,4.0
# From MPC118095
C/2019 M3 (ATLAS),e,99.5657,154.9721,87.9180,4892,0.0000029,0.99950437,0.0000,12/31.4215/2018,2000,g 12.2,4.0
# From MPEC 2023-JA2
C/2019 M4 (TESS),h,09/11.6005/2019,65.6783,52.6494,260.3705,1.002442,9.190082,2000,5.0,4.0
# From MPEC 2023-C45
C/2019 N1 (ATLAS),e,82.4498,13.5593,193.3794,1177,0.0000244,0.99855223,0.0000,11/30.9245/2020,2000,g  7.5,4.0
# From MPEC 2023-CD8
A/2019 N2,e,89.3518,276.1797,347.1583,1429,0.0000182,0.99863831,0.0000,08/22.6552/2019,2000,g 12.5,2.0
# From MPEC 2022-A21
C/2019 NJ3 (Lemmon),h,10/22.7439/2020,99.3894,142.4831,246.8939,1.001928,4.363404,2000,9.0,4.0
# From MPEC 2024-E07
C/2019 O2 (PANSTARRS),e,93.3123,48.2577,129.6103,58.33034,0.0022124,0.83400703,0.7774,03/23.0/2024,2000,g  5.0,4.0
# From MPEC 2024-F34
C/2019 O3 (Palomar),h,03/09.5458/2021,89.8112,300.4479,60.1311,1.004159,8.821382,2000,3.5,4.0
# From MPEC 2021-P47
A/2019 O4,e,115.0686,354.9282,61.8692,33.25791,0.0051388,0.89036263,7.7188,03/23.0/2024,2000,g 15.5,2.0
# From MPEC 2024-EF7
C/2019 Q1 (Lemmon),h,07/21.3357/2020,155.7312,42.4566,56.2393,1.001606,5.004898,2000,8.5,4.0
# From MPC117072
A/2019 Q2,e,159.0145,188.0422,176.4525,58.36427,0.0022105,0.97834745,0.0000,07/22.5351/2019,2000,g 18.0,2.0
# From MPC117072
P/2019 S2 (PANSTARRS),e,10.4647,93.1858,217.0837,4.745015,0.0953559,0.20508673,177.1656,03/23.0/2024,2000,g 13.5,4.0
# From MPEC 2022-CN4
P/2019 S3 (PANSTARRS),e,8.6939,150.1641,213.0647,3.415197,0.1561638,0.47101286,260.6776,03/23.0/2024,2000,g 18.3,4.0
# From MPEC 2021-S45
C/2019 S4 (Lemmon),e,92.1048,63.1580,71.3723,240.0147,0.0002651,0.98566025,0.0000,04/08.4584/2020,2000,g 11.0,4.0
# From MPEC 2023-N01
A/2019 T1,e,120.8621,6.9437,91.0495,38.83652,0.0040723,0.88981362,4.7361,03/23.0/2024,2000,g 13.0,2.0
# From MPEC 2023-R20
C/2019 T2 (Lemmon),e,111.4398,155.6555,239.4240,5018,0.0000028,0.99947279,0.0000,04/22.6572/2021,2000,g  9.0,4.0
# From MPEC 2023-UR6
C/2019 T3 (ATLAS),e,121.8428,139.5329,112.4604,3369,0.0000050,0.99823289,0.0000,03/04.3047/2021,2000,g  6.8,4.0
# From MPEC 2024-F34
C/2019 T4 (ATLAS),e,53.6296,199.9341,351.1343,900.0084,0.0000365,0.99528846,0.0000,06/08.7396/2022,2000,g  5.0,4.0
# From MPEC 2021-P47
P/2019 T5 (ATLAS),e,33.4941,247.6131,189.5839,8.001171,0.0435486,0.80978652,73.7898,03/23.0/2024,2000,g 15.0,4.0
# From MPEC 2021-P47
P/2019 T6 (PANSTARRS),e,18.6989,71.2481,329.0100,5.439859,0.0776824,0.62300900,123.9820,03/23.0/2024,2000,g 15.5,4.0
# From MPC118096
P/2019 U4 (PANSTARRS),e,11.6982,200.0189,181.0426,3.519762,0.1492568,0.47597413,245.6255,03/23.0/2024,2000,g 19.0,4.0
# From MPEC 2024-F34
C/2019 U5 (PANSTARRS),h,03/29.7146/2023,113.5150,2.6326,181.4719,1.000977,3.623923,2000,4.5,4.0
# From MPEC 2022-H04
C/2019 U6 (Lemmon),e,60.9661,235.7885,329.5041,320.1389,0.0001721,0.99715394,0.0000,06/18.2794/2020,2000,g 10.0,4.0
# From MPEC 2022-N37
C/2019 V1 (Borisov),e,61.9332,83.1513,51.1708,1795,0.0000130,0.99827637,0.0000,07/16.7762/2020,2000,g 11.0,4.0
# From MPEC 2022-L66
P/2019 V2 (Groeller),e,11.8075,189.1752,335.6573,7.496064,0.0480235,0.33131603,60.1842,03/23.0/2024,2000,g 10.0,4.0
# From MPEC 2023-A50
P/2019 W1 (PANSTARRS),e,23.4746,35.3759,18.7903,4.548822,0.1015911,0.26728938,180.6915,03/23.0/2024,2000,g 12.9,4.0
# From MPEC 2021-P47
P/2019 X1 (Pruyne),e,10.2501,43.6796,36.8522,6.175897,0.0642176,0.30392697,109.4769,03/23.0/2024,2000,g 10.4,4.0
# From MPEC 2020-C98
P/2019 X2 (Pan-STARRS),e,15.8953,250.8403,213.4540,3.635912,0.1421622,0.50009907,222.4676,03/23.0/2024,2000,g 18.0,4.0
# From MPC119999
C/2019 Y1 (ATLAS),e,73.3732,31.5379,57.9102,87.24827,0.0012094,0.99051118,0.0000,03/16.4649/2020,2000,g 13.7,4.0
# From MPEC 2020-C98
P/2019 Y3 (Catalina),e,24.6009,139.3028,2.5786,3.014415,0.1883214,0.69114141,294.9931,03/23.0/2024,2000,g 18.5,4.0
# From MPEC 2024-A43
C/2019 Y4 (ATLAS),e,45.0971,120.7185,177.4429,353.1780,0.0001485,0.99927445,0.0000,05/30.5534/2020,2000,g 11.8,6.0
# From MPEC 2020-L06
C/2019 Y4-A (ATLAS),h,05/30.5885/2020,45.5370,121.0823,177.2766,1.001409,0.254410,2000,11.6,6.0
# From MPEC 2023-J29
C/2019 Y4-B (ATLAS),h,05/30.5621/2020,45.2271,120.8254,177.3872,1.000005,0.255723,2000,12.1,6.0
# From MPEC 2020-L06
C/2019 Y4-C (ATLAS),h,05/30.5410/2020,45.3198,120.8093,177.3098,1.002135,0.255483,2000,12.7,6.0
# From MPEC 2020-L06
C/2019 Y4-D (ATLAS),e,45.3677,121.1784,177.4490,68.15478,0.0017517,0.99626155,0.0000,05/30.6620/2020,2000,g 12.5,6.0
# From MPEC 2023-A50
C/2019 Y5 (PANSTARRS),e,82.7613,51.7503,303.6029,720.6275,0.0000509,0.99316554,0.0000,08/17.4802/2019,2000,g 11.0,4.0
# From MPEC 2023-A50
A/2020 A1,e,149.0338,119.1467,302.4412,25.54268,0.0076349,0.93473723,12.0127,03/23.0/2024,2000,g 18.0,2.0
# From MPEC 2022-YN2
C/2020 A2 (Iwamoto),e,120.5697,286.2485,68.0427,1196,0.0000238,0.99918604,0.0000,01/08.2167/2020,2000,g 13.5,4.0
# From MPEC 2023-A50
C/2020 A3 (ATLAS),h,06/28.4860/2019,146.6474,120.8045,268.3108,1.000187,5.756039,2000,8.0,4.0
# From MPEC 2022-P91
P/2020 A4 (PANSTARRS-Lemmon),e,24.9931,312.3453,144.7966,8.196362,0.0420022,0.65431624,66.4234,03/23.0/2024,2000,g 15.0,4.0
# From MPEC 2020-N08
A/2020 B1,e,18.5247,309.9043,154.7534,51.63021,0.0026567,0.96632172,4.1130,03/23.0/2024,2000,g 21.0,2.0
# From MPEC 2020-HN5
C/2020 B2 (Lemmon),e,55.7524,354.2685,143.5951,67.66735,0.0017707,0.95923318,2.6865,03/23.0/2024,2000,g 10.0,4.0
# From MPEC 2022-N37
C/2020 B3 (Rankin),e,20.7083,185.8233,324.8838,946.3994,0.0000339,0.99647942,0.0000,10/19.7861/2019,2000,g 13.0,4.0
# From MPEC 2023-KD6
P/2020 B4 (Sheppard),e,11.6074,185.9740,341.9945,7.968075,0.0438202,0.19216098,37.4990,03/23.0/2024,2000,g 10.5,4.0
# From MPEC 2024-F34
C/2020 F2 (ATLAS),h,07/13.9596/2022,163.5894,250.3014,48.2929,1.004649,8.815272,2000,4.5,4.0
# From MPEC 2021-O56
C/2020 F3 (NEOWISE),e,129.1457,61.0933,37.3898,378.2344,0.0001340,0.99922017,0.0000,07/04.1494/2020,2000,g  7.5,5.2
# From MPEC 2024-BE0
C/2020 F5 (MASTER),e,52.2093,350.5041,310.6756,170.4586,0.0004429,0.97461934,0.0000,03/17.0157/2021,2000,g  6.5,3.2
# From MPEC 2020-L06
C/2020 F6 (PANSTARRS),e,174.5831,207.8931,344.4655,377.9190,0.0001342,0.99073515,0.0000,04/11.4268/2020,2000,g 14.5,2.8
# From MPEC 2024-A43
C/2020 F7 (Lemmon),e,93.9583,321.8518,227.9503,556.1760,0.0000751,0.99041196,0.0000,11/13.6283/2021,2000,g  7.0,4.0
# From MPEC 2023-J29
C/2020 F8 (SWAN),h,05/26.8514/2020,110.5801,259.8304,68.0746,1.000140,0.430155,2000,10.0,4.0
# From MPEC 2020-L06
P/2020 G1 (Pimentel),e,18.5112,240.1100,207.6173,3.607745,0.1438303,0.86065109,210.8284,03/23.0/2024,2000,g 17.0,4.0
# From MPEC 2022-YB4
C/2020 H2 (Pruyne),e,124.8412,277.6703,26.6305,185.2337,0.0003910,0.99552038,0.0000,04/27.6964/2020,2000,g 14.0,3.2
# From MPEC 2020-HM1
C/2020 H3 (Wierzchos),p,06/05.7162/2020,62.5292,30.4456,2.300288,270.6227,2000,13.5,4.0
# From MPEC 2020-L06
C/2020 H4 (Leonard),e,84.4971,307.5881,117.5197,47.81743,0.0029807,0.98066137,0.0000,08/29.5885/2020,2000,g 15.0,3.2
# From MPEC 2024-F34
C/2020 H5 (Robinson),e,70.2532,210.6268,326.2991,4482,0.0000033,0.99791609,0.0000,12/10.2231/2020,2000,g  5.0,4.0
# From MPEC 2024-AF0
C/2020 H6 (ATLAS),e,79.9782,213.7182,20.2574,3441,0.0000049,0.99863420,0.0000,09/30.2456/2021,2000,g  8.0,3.2
# From MPEC 2020-KB7
C/2020 H7 (Lemmon),e,135.9235,323.5194,82.6780,1405,0.0000187,0.99685380,0.0000,06/02.9510/2020,2000,g 11.0,4.0
# From MPEC 2021-N06
C/2020 H8 (PANSTARRS),e,99.7034,68.4404,128.9031,599.7409,0.0000671,0.99221078,0.0000,06/04.5777/2020,2000,g 10.5,4.0
# From MPEC 2022-ED3
A/2020 H9,e,137.8787,213.1780,312.7630,362.5527,0.0001428,0.99291450,0.0000,12/21.8712/2019,2000,g 18.0,2.0
# From MPEC 2023-HN7
C/2020 H11 (PANSTARRS-Lemmon),h,09/14.2892/2020,151.3896,303.0472,91.4289,1.001512,7.624237,2000,8.5,4.0
# From MPEC 2023-KD6
C/2020 J1 (SONEAR),h,04/18.5276/2021,142.3059,226.6101,341.6897,1.000455,3.350020,2000,8.5,3.2
# From MPEC 2024-F34
C/2020 K1 (PANSTARRS),e,89.6732,94.3619,213.9821,8825,0.0000012,0.99965175,0.0000,05/09.0562/2023,2000,g  5.5,4.0
# From MPEC 2021-N06
C/2020 K2 (PANSTARRS),h,08/05.9265/2020,91.0069,288.4128,67.3443,1.002704,8.880580,2000,10.8,4.0
# From MPEC 2020-KF9
C/2020 K3 (Leonard),p,06/01.0032/2020,129.0152,64.4924,1.583069,28.3546,2000,14.5,4.0
# From MPEC 2020-L06
C/2020 K4 (PANSTARRS),e,125.5853,264.2466,308.8577,23.96846,0.0083993,0.92695038,12.4281,03/23.0/2024,2000,g 16.5,4.0
# From MPEC 2021-R75
C/2020 K5 (PANSTARRS),h,06/05.1565/2021,67.0869,86.1510,249.6267,1.001175,1.538101,2000,11.0,4.0
# From MPEC 2023-N01
C/2020 K6 (Rankin),h,09/15.6463/2021,103.6438,291.5764,44.3281,1.003364,5.868307,2000,8.0,4.0
# From MPEC 2023-A50
C/2020 K7 (PANSTARRS),e,32.0441,286.1048,358.2050,96.88108,0.0010336,0.93400181,1.6629,03/23.0/2024,2000,g  8.0,4.0
# From MPEC 2021-P47
C/2020 K8 (Catalina-ATLAS),h,09/15.1880/2020,31.4391,181.4858,259.9833,1.000236,0.471147,2000,15.0,3.2
# From MPEC 2021-BE3
P/2020 K9 (Lemmon-PANSTARRS),e,23.2031,166.3131,197.0666,4.204887,0.1143069,0.32087330,129.7030,03/23.0/2024,2000,g 12.5,4.0
# From MPEC 2023-C45
P/2020 M1 (PANSTARRS),e,8.5335,142.6028,72.6124,5.315617,0.0804218,0.47307195,124.7269,03/23.0/2024,2000,g 14.5,4.0
# From MPEC 2022-H30
C/2020 M3 (ATLAS),e,23.4706,71.1764,328.5841,27.20690,0.0069452,0.95331475,8.6399,03/23.0/2024,2000,g 14.5,4.0
# From MPEC 2023-N01
